*******************************************************************************
 Revised: Sep 08, 2007            Belinda / (Uranus)                        714

 SATELLITE PHYSICAL PROPERTIES:
  Radius (km)           = 34 +- 4           Density (g cm^-3)   =
  Mass (10^20 kg )      =                   Geometric Albedo    =   0.07 
                                            V(1,0)              =  +9.4

 SATELLITE ORBITAL DATA:
  Semi-major axis, a (km) =  75.255 (10^3)  Orbital period      =  0.623525 d
  Eccentricity, e         =   0.000         Rotational period   = 
  Inclination, i  (deg)   =   0.0
*******************************************************************************
 
 
*******************************************************************************
Ephemeris / WWW_USER Sun Nov 12 08:45:08 2017 Pasadena, USA      / Horizons    
*******************************************************************************
Target body name: Belinda (714)                   {source: ura086x}
Center body name: Solar System Barycenter (0)     {source: DE431mx}
Center-site name: BODY CENTER
*******************************************************************************
Start time      : A.D. 2017-Jul-10 00:00:00.0000 TDB
Stop  time      : A.D. 2020-Aug-13 00:00:00.0000 TDB
Step-size       : 1440 minutes
*******************************************************************************
Center geodetic : 0.00000000,0.00000000,0.0000000 {E-lon(deg),Lat(deg),Alt(km)}
Center cylindric: 0.00000000,0.00000000,0.0000000 {E-lon(deg),Dxy(km),Dz(km)}
Center radii    : (undefined)                                                  
Output units    : KM-S                                                         
Output type     : GEOMETRIC cartesian states
Output format   : 3 (position, velocity, LT, range, range-rate)
Reference frame : ICRF/J2000.0                                                 
Coordinate systm: Ecliptic and Mean Equinox of Reference Epoch                 
*******************************************************************************
            JDTDB,            Calendar Date (TDB),                      X,                      Y,                      Z,                     VX,                     VY,                     VZ,                     LT,                     RG,                     RR,
**************************************************************************************************************************************************************************************************************************************************************************
$$SOE
2458565.500000000, A.D. 2019-Mar-23 00:00:00.0000,  2.520267408587245E+09,  1.571855045969080E+09, -2.679026948357654E+07, -1.316857584641185E+00,  3.792647253830655E+00, -8.226553937390065E+00,  9.908141648503499E+03,  2.970386139017035E+09,  9.638646068567015E-01,
2458566.500000000, A.D. 2019-Mar-24 00:00:00.0000,  2.519812484425612E+09,  1.572357695575527E+09, -2.678149438674760E+07, -5.018719434755168E-01,  5.910601444589951E+00,  8.245324240806779E+00,  9.907741366734022E+03,  2.970266137561472E+09,  2.628765912426461E+00,
2458567.500000000, A.D. 2019-Mar-25 00:00:00.0000,  2.519603004436060E+09,  1.572793866159817E+09, -2.686368766947615E+07, -1.100404976897427E+01,  6.410757760673310E+00, -4.640907126816943E+00,  9.907921369784623E+03,  2.970320101118459E+09, -5.897803569821909E+00,
2458568.500000000, A.D. 2019-Mar-26 00:00:00.0000,  2.519257138581738E+09,  1.573291193410835E+09, -2.672080069066072E+07,  4.867640965946867E+00,  3.496221448425773E+00, -6.272243253826832E-01,  9.907817047717454E+03,  2.970288826149519E+09,  5.986008312118519E+00,
2458569.500000000, A.D. 2019-Mar-27 00:00:00.0000,  2.518882310528696E+09,  1.573757569673819E+09, -2.684470886997187E+07, -9.865155042186082E+00,  7.627484220102624E+00,  5.883273284519721E+00,  9.907584533019715E+03,  2.970219119996762E+09, -4.377888543108892E+00,
2458570.500000000, A.D. 2019-Mar-28 00:00:00.0000,  2.518689622117106E+09,  1.574211765190830E+09, -2.676956801753700E+07, -2.315904752114618E+00,  3.971453272878757E+00, -8.478163615323195E+00,  9.907840065445462E+03,  2.970295726690776E+09,  2.174261552038459E-01,
2458571.500000000, A.D. 2019-Mar-29 00:00:00.0000,  2.518236056187013E+09,  1.574716045748255E+09, -2.674410037550986E+07,  4.151129536892371E-01,  5.648320448156977E+00,  7.837328278578715E+00,  9.907448132133795E+03,  2.970178228039900E+09,  3.275982182683502E+00,
2458572.500000000, A.D. 2019-Mar-30 00:00:00.0000,  2.518014702681202E+09,  1.575152668001082E+09, -2.683878075969076E+07, -1.148235952329196E+01,  6.636306141996937E+00, -3.741803553553700E+00,  9.907597262421392E+03,  2.970222936175380E+09, -6.181061060117854E+00,
2458573.500000000, A.D. 2019-Mar-31 00:00:00.0000,  2.517684689221312E+09,  1.575646553327109E+09, -2.669281557794821E+07,  4.690985214654042E+00,  3.387531739488256E+00, -1.649034647083889E+00,  9.907533514239234E+03,  2.970203824951158E+09,  5.788152178380502E+00,
2458574.500000000, A.D. 2019-Apr-01 00:00:00.0000,  2.517294813709870E+09,  1.576116865838307E+09, -2.680923001784587E+07, -9.125942570200268E+00,  7.562256498720329E+00,  6.607993554874160E+00,  9.907267085899221E+03,  2.970123951744224E+09, -3.781270846735026E+00,
2458575.500000000, A.D. 2019-Apr-02 00:00:00.0000,  2.517108402700552E+09,  1.576567179626089E+09, -2.674916395216453E+07, -3.334761436048018E+00,  4.171436373870838E+00, -8.609309908008640E+00,  9.907535501357108E+03,  2.970204420674109E+09, -5.343452118795498E-01,
2458576.500000000, A.D. 2019-Apr-03 00:00:00.0000,  2.516658064926263E+09,  1.577072648197178E+09, -2.670724243713701E+07,  1.274169273987236E+00,  5.383514113677546E+00,  7.320675502169233E+00,  9.907156430585801E+03,  2.970090778115823E+09,  3.872382039171799E+00,
2458577.500000000, A.D. 2019-Apr-04 00:00:00.0000,  2.516423473979445E+09,  1.577510226746342E+09, -2.681293304260707E+07, -1.185068179930438E+01,  6.845392976913911E+00, -2.788291670204204E+00,  9.907271724456707E+03,  2.970125342348774E+09, -6.379493110014940E+00,
2458578.500000000, A.D. 2019-Apr-05 00:00:00.0000,  2.516109511540194E+09,  1.578000359967223E+09, -2.666579456771410E+07,  4.397084477229451E+00,  3.307968741102172E+00, -2.645984923671309E+00,  9.907248547452313E+03,  2.970118394057658E+09,  5.506204487856762E+00,
2458579.500000000, A.D. 2019-Apr-06 00:00:00.0000,  2.515705662410487E+09,  1.578474621763498E+09, -2.677293900533676E+07, -8.309195750186111E+00,  7.467252651673384E+00,  7.241132817452721E+00,  9.906951282396642E+03,  2.970029276235941E+09, -3.134813678641092E+00,
2458580.500000000, A.D. 2019-Apr-07 00:00:00.0000,  2.515523764429538E+09,  1.578921335812320E+09, -2.672868921085835E+07, -4.357480254318302E+00,  4.389336872382803E+00, -8.618344137799472E+00,  9.907228075161504E+03,  2.970112256619275E+09, -1.279604986126604E+00,
2458581.500000000, A.D. 2019-Apr-08 00:00:00.0000,  2.515078600412859E+09,  1.579427491688013E+09, -2.667084756731737E+07,  2.064245776060923E+00,  5.119447534420550E+00,  6.701419500373614E+00,  9.906866488049711E+03,  2.970003855530250E+09,  4.410365997711469E+00,
2458582.500000000, A.D. 2019-Apr-09 00:00:00.0000,  2.514829641470554E+09,  1.579866485115874E+09, -2.678603543176842E+07, -1.210370860856830E+01,  7.034774507431391E+00, -1.795254509716038E+00,  9.906945569411933E+03,  2.970027563526213E+09, -6.490402039272202E+00,
2458583.500000000, A.D. 2019-Apr-10 00:00:00.0000,  2.514531674429088E+09,  1.580352592596190E+09, -2.663976401137519E+07,  3.989371083767986E+00,  3.258582807332698E+00, -3.605211586891139E+00,  9.906962307844651E+03,  2.970032581582101E+09,  5.143765701281162E+00,
2458584.500000000, A.D. 2019-Apr-11 00:00:00.0000,  2.514115043611267E+09,  1.580830761296615E+09, -2.673607347969294E+07, -7.427565509165037E+00,  7.343894066244893E+00,  7.773107039487424E+00,  9.906637519295251E+03,  2.969935212424545E+09, -2.448579641376403E+00,
2458585.500000000, A.D. 2019-Apr-12 00:00:00.0000,  2.513935725911036E+09,  1.581274222034764E+09, -2.670818408699381E+07, -5.370864761716021E+00,  4.622293754868632E+00, -8.505085666440142E+00,  9.906917827809659E+03,  2.970019246803078E+09, -2.008653464126572E+00,
2458586.500000000, A.D. 2019-Apr-13 00:00:00.0000,  2.513497512795587E+09,  1.581780574837945E+09, -2.663514392895567E+07,  2.773377025070162E+00,  4.860071357190275E+00,  5.989067711226458E+00,  9.906577879843653E+03,  2.969917332966757E+09,  4.881928152766417E+00,
2458587.500000000, A.D. 2019-Apr-14 00:00:00.0000,  2.513233215269541E+09,  1.582221436385178E+09, -2.675810372244549E+07, -1.223802474109332E+01,  7.201876008650946E+00, -7.757021020002093E-01,  9.906618818057132E+03,  2.969929605934402E+09, -6.512373663530755E+00,
2458588.500000000, A.D. 2019-Apr-15 00:00:00.0000,  2.512950983130525E+09,  1.582703301048187E+09, -2.661465591236007E+07,  3.474075053015436E+00,  3.239974861954443E+00, -4.512691866877648E+00,  9.906674333755815E+03,  2.969946249122168E+09,  4.706550825517406E+00,
2458589.500000000, A.D. 2019-Apr-16 00:00:00.0000,  2.512522987485231E+09,  1.583185266527792E+09, -2.669869705792177E+07, -6.492955509346016E+00,  7.193734628662563E+00,  8.196391153382759E+00,  9.906325847101563E+03,  2.969841775451510E+09, -1.731916597520358E+00,
2458590.500000000, A.D. 2019-Apr-17 00:00:00.0000,  2.512344306411317E+09,  1.583625851846109E+09, -2.668750490816092E+07, -6.360593925069484E+00,  4.866903632661860E+00, -8.271454652859884E+00,  9.906604841327189E+03,  2.969925415816178E+09, -2.711146546775170E+00,
2458591.500000000, A.D. 2019-Apr-18 00:00:00.0000,  2.511914715374285E+09,  1.584131900597953E+09, -2.660023052362931E+07,  3.391307518387930E+00,  4.608991268432012E+00,  5.193339502247755E+00,  9.906290364290298E+03,  2.969831137972304E+09,  5.280361273489230E+00,
